NORAD_CAT_ID,OBJECT_NAME,OBJECT_TYPE,EPOCH,MEAN_MOTION,ECCENTRICITY,INCLINATION,RA_OF_ASC_NODE,ARG_OF_PERICENTER,MEAN_ANOMALY,BSTAR,MEAN_MOTION_DOT,MEAN_MOTION_DDOT,TLE_LINE0,TLE_LINE1,TLE_LINE2,SEMIMAJOR_AXIS,PERIOD,APOGEE,PERIGEE,DECAYED
52501.0,STARLINK-3907,PAYLOAD,2024-07-18 18:46:09,15.08844678,0.0001331,53.2147,217.5199,88.373,271.7415,0.00020116,2.915e-05,0.0,0 STARLINK-3907,1 52501U 22049BC  24200.78205432  .00002915  00000-0  20116-3 0  9999,2 52501  53.2147 217.5199 0001331  88.3730 271.7415 15.08844678121987,6917.866,95.437,540.652,538.81,0.0
52501.0,STARLINK-3907,PAYLOAD,2024-07-19 10:40:00,15.08842832,0.0001505,53.2156,214.5458,96.4397,263.6766,0.00015604,2.196e-05,0.0,0 STARLINK-3907,1 52501U 22049BC  24201.44445590  .00002196  00000-0  15604-3 0  9991,2 52501  53.2156 214.5458 0001505  96.4397 263.6766 15.08842832122243,6917.872,95.437,540.778,538.696,0.0
52501.0,STARLINK-3907,PAYLOAD,2024-07-20 07:20:01,15.08841259,0.0001448,53.2148,210.6808,92.0027,268.1131,0.00010081,1.317e-05,0.0,0 STARLINK-3907,1 52501U 22049BC  24202.30557552  .00001317  00000-0  10081-3 0  9997,2 52501  53.2148 210.6808 0001448  92.0027 268.1131 15.08841259122213,6917.877,95.437,540.743,538.74,0.0
52501.0,STARLINK-3907,PAYLOAD,2024-07-21 05:35:26,15.08833911,0.0001308,53.2156,206.5172,89.4126,270.7016,3.9172e-05,3.35e-06,0.0,0 STARLINK-3907,1 52501U 22049BC  24203.23294060  .00000335  00000-0  39172-4 0  9994,2 52501  53.2156 206.5172 0001308  89.4126 270.7016 15.08833911122515,6917.899,95.438,540.669,538.859,0.0
52501.0,STARLINK-3907,PAYLOAD,2024-07-21 07:10:49,15.08833735,0.0001316,53.2156,206.2195,90.0526,270.0617,3.2781e-05,2.34e-06,0.0,0 STARLINK-3907,1 52501U 22049BC  24203.29918072  .00000234  00000-0  32781-4 0  9993,2 52501  53.2156 206.2195 0001316  90.0526 270.0617 15.08833735122365,6917.9,95.438,540.675,538.854,0.0
52501.0,STARLINK-3907,PAYLOAD,2024-07-22 05:26:13,15.08836922,0.0001298,53.2159,202.0551,86.2502,273.8639,1.6451e-05,-2.6e-07,0.0,0 STARLINK-3907,1 52501U 22049BC  24204.22654104 -.00000026  00000-0  16451-4 0  9996,2 52501  53.2159 202.0551 0001298  86.2502 273.8639 15.08836922122500,6917.89,95.438,540.653,538.857,0.0
52501.0,STARLINK-3907,PAYLOAD,2024-07-22 22:55:27,15.08836532,0.0001244,53.216,198.7849,87.3411,272.7723,0.00011797,1.59e-05,0.0,0 STARLINK-3907,1 52501U 22049BC  24204.95518006  .00001590  00000-0  11797-3 0  9999,2 52501  53.2160 198.7849 0001244  87.3411 272.7723 15.08836532122616,6917.891,95.438,540.617,538.895,0.0
52501.0,STARLINK-3907,PAYLOAD,2024-07-23 03:41:36,15.08838573,0.0001263,53.2162,197.8939,91.0889,269.0248,0.00013498,1.861e-05,0.0,0 STARLINK-3907,1 52501U 22049BC  24205.15389896  .00001861  00000-0  13498-3 0  9996,2 52501  53.2162 197.8939 0001263  91.0889 269.0248 15.08838573122809,6917.885,95.438,540.623,538.876,0.0
52501.0,STARLINK-3907,PAYLOAD,2024-07-23 06:52:23,15.08841072,0.0001242,53.2159,197.2993,91.4546,268.6588,0.00015949,2.251e-05,0.0,0 STARLINK-3907,1 52501U 22049BC  24205.28637781  .00002251  00000-0  15949-3 0  9996,2 52501  53.2159 197.2993 0001242  91.4546 268.6588 15.08841072122664,6917.877,95.437,540.601,538.883,0.0
52501.0,STARLINK-3907,PAYLOAD,2024-07-23 16:24:41,15.08847302,0.0001196,53.2155,195.5145,87.4714,272.6415,0.00019225,2.774e-05,0.0,0 STARLINK-3907,1 52501U 22049BC  24205.68381303  .00002774  00000-0  19225-3 0  9997,2 52501  53.2155 195.5145 0001196  87.4714 272.6415 15.08847302122880,6917.858,95.437,540.55,538.896,0.0
52501.0,STARLINK-3907,PAYLOAD,2024-07-24 05:07:47,15.08834007,0.0001333,53.2158,193.1364,89.9152,270.1992,4.2766e-05,3.93e-06,0.0,0 STARLINK-3907,1 52501U 22049BC  24206.21374720  .00000393  00000-0  42766-4 0  9994,2 52501  53.2158 193.1364 0001333  89.9152 270.1992 15.08834007122966,6917.899,95.438,540.686,538.842,0.0
52501.0,STARLINK-3907,PAYLOAD,2024-07-24 06:43:10,15.08834471,0.0001318,53.2158,192.8388,88.5425,271.5718,4.9279e-05,4.96e-06,0.0,0 STARLINK-3907,1 52501U 22049BC  24206.27998718  .00000496  00000-0  49279-4 0  9999,2 52501  53.2158 192.8388 0001318  88.5425 271.5718 15.08834471122819,6917.897,95.438,540.674,538.851,0.0
52501.0,STARLINK-3907,PAYLOAD,2024-07-24 22:37:01,15.08842714,0.0001387,53.2162,189.864,82.6994,277.4156,6.1405e-05,6.9e-06,0.0,0 STARLINK-3907,1 52501U 22049BC  24206.94238353  .00000690  00000-0  61405-4 0  9996,2 52501  53.2162 189.8640 0001387  82.6994 277.4156 15.08842714122914,6917.872,95.437,540.697,538.778,0.0
52501.0,STARLINK-3907,PAYLOAD,2024-07-25 06:33:58,15.08832005,0.0001012,53.2154,188.3757,101.7998,258.3107,-5.4914e-05,-1.161e-05,0.0,0 STARLINK-3907,1 52501U 22049BC  24207.27359206 -.00001161  00000-0 -54914-4 0  9997,2 52501  53.2154 188.3757 0001012 101.7998 258.3107 15.08832005123120,6917.905,95.438,540.47,539.07,0.0
52501.0,STARLINK-3907,PAYLOAD,2024-07-26 08:00:08,15.08836556,0.0001188,53.2156,183.6177,89.8356,270.2772,0.00011143,1.486e-05,0.0,0 STARLINK-3907,1 52501U 22049BC  24208.33343429  .00001486  00000-0  11143-3 0  9999,2 52501  53.2156 183.6177 0001188  89.8356 270.2772 15.08836556123287,6917.891,95.438,540.578,538.934,0.0
52501.0,STARLINK-3907,PAYLOAD,2024-07-26 15:57:03,15.08847593,0.0001337,53.217,182.1333,85.0582,275.0563,0.00017137,2.441e-05,0.0,0 STARLINK-3907,1 52501U 22049BC  24208.66462693  .00002441  00000-0  17137-3 0  9991,2 52501  53.2170 182.1333 0001337  85.0582 275.0563 15.08847593123336,6917.857,95.437,540.647,538.797,0.0
52501.0,STARLINK-3907,PAYLOAD,2024-07-27 04:40:08,15.08851586,0.0001343,53.2159,179.7553,81.7753,278.3392,0.00040495,6.165e-05,0.0,0 STARLINK-3907,1 52501U 22049BC  24209.19453960  .00006165  00000-0  40495-3 0  9997,2 52501  53.2159 179.7553 0001343  81.7753 278.3392 15.08851586123253,6917.845,95.437,540.639,538.781,0.0
52501.0,STARLINK-3907,PAYLOAD,2024-07-27 22:09:22,15.08861909,0.0001402,53.2147,176.4834,84.7969,275.3183,0.00035692,5.4e-05,0.0,0 STARLINK-3907,1 52501U 22049BC  24209.92317739  .00005400  00000-0  35692-3 0  9995,2 52501  53.2147 176.4834 0001402  84.7969 275.3183 15.08861909123361,6917.813,95.436,540.648,538.709,0.0
52501.0,STARLINK-3907,PAYLOAD,2024-07-28 04:30:55,15.08841263,0.0001225,53.215,175.2953,96.1115,264.0017,-0.00038693,-6.441e-05,0.0,0 STARLINK-3907,1 52501U 22049BC  24210.18813863 -.00006441  00000-0 -38693-3 0  9996,2 52501  53.2150 175.2953 0001225  96.1115 264.0017 15.08841263123561,6917.877,95.437,540.589,538.894,0.0
52501.0,STARLINK-3907,PAYLOAD,2024-07-28 22:00:09,15.08834091,0.0001286,53.215,172.0229,105.8635,254.2499,-1.2754e-05,-4.91e-06,0.0,0 STARLINK-3907,1 52501U 22049BC  24210.91678187 -.00000491  00000-0 -12754-4 0  9995,2 52501  53.2150 172.0229 0001286 105.8635 254.2499 15.08834091123515,6917.898,95.438,540.653,538.874,0.0
52501.0,STARLINK-3907,PAYLOAD,2024-07-29 13:54:01,15.08842761,0.00013,53.2152,169.0508,106.6537,253.4598,0.00037646,5.709e-05,0.0,0 STARLINK-3907,1 52501U 22049BC  24211.57918419  .00005709  00000-0  37646-3 0  9994,2 52501  53.2152 169.0508 0001300 106.6537 253.4598 15.08842761123615,6917.872,95.437,540.636,538.838,0.0
52501.0,STARLINK-3907,PAYLOAD,2024-07-29 21:50:57,15.0883695,0.0001685,53.2151,167.5674,114.6022,245.5146,0.00032561,4.897e-05,0.0,0 STARLINK-3907,1 52501U 22049BC  24211.91038908  .00004897  00000-0  32561-3 0  9996,2 52501  53.2151 167.5674 0001685 114.6022 245.5146 15.08836950123822,6917.89,95.438,540.92,538.589,0.0
52501.0,STARLINK-3907,PAYLOAD,2024-07-30 13:44:48,15.08856251,0.0001376,53.2162,164.5913,104.8641,255.2503,0.00058336,9.012e-05,0.0,0 STARLINK-3907,1 52501U 22049BC  24212.57278412  .00009012  00000-0  58336-3 0  9997,2 52501  53.2162 164.5913 0001376 104.8641 255.2503 15.08856251123766,6917.831,95.437,540.648,538.744,0.0
52501.0,STARLINK-3907,PAYLOAD,2024-07-30 20:06:21,15.08850842,0.0001938,53.2159,163.4018,95.5654,264.556,0.00050122,7.7e-05,0.0,0 STARLINK-3907,1 52501U 22049BC  24212.83774751  .00007700  00000-0  50122-3 0  9990,2 52501  53.2159 163.4018 0001938  95.5654 264.5560 15.08850842123801,6917.847,95.437,541.053,538.372,0.0
52501.0,STARLINK-3907,PAYLOAD,2024-07-31 13:35:35,15.08854753,0.0001467,53.2159,160.1307,85.1772,274.9388,0.00040384,6.148e-05,0.0,0 STARLINK-3907,1 52501U 22049BC  24213.56638442  .00006148  00000-0  40384-3 0  9991,2 52501  53.2159 160.1307 0001467  85.1772 274.9388 15.08854753123919,6917.835,95.437,540.715,538.685,0.0
52501.0,STARLINK-3907,PAYLOAD,2024-08-01 03:54:04,15.08844919,0.0001328,53.215,157.4513,80.0053,280.1089,0.00069036,0.00010718,0.0,0 STARLINK-3907,1 52501U 22049BC  24214.16255005  .00010718  00000-0  69036-3 0  9991,2 52501  53.2150 157.4513 0001328  80.0053 280.1089 15.08844919124168,6917.865,95.437,540.649,538.812,0.0
52501.0,STARLINK-3907,PAYLOAD,2024-08-01 13:26:22,15.08858261,0.0001275,53.215,155.6685,87.3621,272.7517,0.0013264,0.00020895,0.0,0 STARLINK-3907,1 52501U 22049BC  24214.55998756  .00020895  00000-0  13264-2 0  9999,2 52501  53.2150 155.6685 0001275  87.3621 272.7517 15.08858261124067,6917.825,95.436,540.572,538.808,0.0
52501.0,STARLINK-3907,PAYLOAD,2024-08-02 03:44:51,15.08850391,0.0001405,53.2148,152.9938,91.2412,268.8741,0.0017466,0.00027626,0.0,0 STARLINK-3907,1 52501U 22049BC  24215.15615024  .00027626  00000-0  17466-2 0  9997,2 52501  53.2148 152.9938 0001405  91.2412 268.8741 15.08850391124311,6917.849,95.437,540.686,538.742,0.0
52501.0,STARLINK-3907,PAYLOAD,2024-08-02 13:17:09,15.08864399,0.0001414,53.2151,151.2057,99.4022,260.713,0.0013993,0.00022067,0.0,0 STARLINK-3907,1 52501U 22049BC  24215.55358508  .00022067  00000-0  13993-2 0  9997,2 52501  53.2151 151.2057 0001414  99.4022 260.7130 15.08864399124211,6917.806,95.436,540.649,538.693,0.0
52501.0,STARLINK-3907,PAYLOAD,2024-08-02 19:38:42,15.08835838,0.0001816,53.2154,150.0193,86.2362,273.8838,0.00080653,0.0001257,0.0,0 STARLINK-3907,1 52501U 22049BC  24215.81854996  .00012570  00000-0  80653-3 0  9994,2 52501  53.2154 150.0193 0001816  86.2362 273.8838 15.08835838124417,6917.893,95.438,541.014,538.502,0.0
